ORBCOMM FM24            
1 25478U 98053D   25246.73276310  .00002096  00000+0  72893-3 0  9997
2 25478  45.0071 256.6345 0004678 270.6995  89.3317 14.38265099408751
ORBCOMM FM25            
1 25479U 98053E   25246.70565029  .00001928  00000+0  67479-3 0  9990
2 25479  45.0062 255.0449 0006992 277.6225  82.3829 14.38234937409045
ORBCOMM FM26            
1 25480U 98053F   25246.69962638  .00001762  00000+0  63276-3 0  9994
2 25480  45.0058 252.1030 0008614 290.9713  69.0213 14.37269514408944
ORBCOMM FM27            
1 25481U 98053G   25246.76112253  .00002085  00000+0  72565-3 0  9993
2 25481  45.0046 254.9554 0003272 277.2430  82.8046 14.38268055408983
ORBCOMM FM28            
1 25482U 98053H   25246.30276511  .00002579  00000+0  88313-3 0  9998
2 25482  45.0035 194.5207 0006573 325.4602  34.5819 14.38438029409602
ORBCOMM FM30            
1 25980U 99065A   25246.81968201  .00001964  00000+0  69763-3 0  9990
2 25980  45.0313  77.4838 0006716  47.6552 312.4865 14.37440055345765
ORBCOMM FM31            
1 25981U 99065B   25246.86587286  .00001505  00000+0  54654-3 0  9990
2 25981  45.0228  70.7357 0004276  76.1269 284.0055 14.37370949345325
ORBCOMM FM32            
1 25982U 99065C   25246.75595684  .00001831  00000+0  66682-3 0  9996
2 25982  45.0152  88.3628 0006752  65.1221 295.0328 14.36424245345890
